{
    "links": {
        "self": "http://www.neowsapp.com/rest/v1/neo/54092912?api_key=iIulBulltgU6a56xZRHN4H3l9WmuAYTsLGpBGhQ2"
    },
    "id": "54092912",
    "neo_reference_id": "54092912",
    "name": "(2020 WC3)",
    "designation": "2020 WC3",
    "nasa_jpl_url": "http://ssd.jpl.nasa.gov/sbdb.cgi?sstr=54092912",
    "absolute_magnitude_h": 22.364,
    "estimated_diameter": {
        "kilometers": {
            "estimated_diameter_min": 0.0894859755,
            "estimated_diameter_max": 0.2000967242
        },
        "meters": {
            "estimated_diameter_min": 89.4859754672,
            "estimated_diameter_max": 200.0967241775
        },
        "miles": {
            "estimated_diameter_min": 0.0556039901,
            "estimated_diameter_max": 0.1243343016
        },
        "feet": {
            "estimated_diameter_min": 293.5891677517,
            "estimated_diameter_max": 656.4853365505
        }
    },
    "is_potentially_hazardous_asteroid": false,
    "close_approach_data": [
        {
            "close_approach_date": "2015-11-26",
            "close_approach_date_full": "2015-Nov-26 20:47",
            "epoch_date_close_approach": 1448570820000,
            "relative_velocity": {
                "kilometers_per_second": "9.5118454212",
                "kilometers_per_hour": "34242.6435162585",
                "miles_per_hour": "21277.0470226441"
            },
            "miss_distance": {
                "astronomical": "0.3045815996",
                "lunar": "118.4822422444",
                "kilometers": "45564758.541352852",
                "miles": "28312628.0835872776"
            },
            "orbiting_body": "Earth"
        },
        {
            "close_approach_date": "2020-12-04",
            "close_approach_date_full": "2020-Dec-04 12:37",
            "epoch_date_close_approach": 1607085420000,
            "relative_velocity": {
                "kilometers_per_second": "8.9309273442",
                "kilometers_per_hour": "32151.3384389593",
                "miles_per_hour": "19977.5913761411"
            },
            "miss_distance": {
                "astronomical": "0.1717408334",
                "lunar": "66.8071841926",
                "kilometers": "25692062.868664858",
                "miles": "15964307.5918087204"
            },
            "orbiting_body": "Earth"
        },
        {
            "close_approach_date": "2025-12-09",
            "close_approach_date_full": "2025-Dec-09 21:36",
            "epoch_date_close_approach": 1765316160000,
            "relative_velocity": {
                "kilometers_per_second": "9.2096696679",
                "kilometers_per_hour": "33154.8108045501",
                "miles_per_hour": "20601.1100801939"
            },
            "miss_distance": {
                "astronomical": "0.1720469108",
                "lunar": "66.9262483012",
                "kilometers": "25737851.395759996",
                "miles": "15992759.2632241048"
            },
            "orbiting_body": "Earth"
        },
        {
            "close_approach_date": "2030-12-16",
            "close_approach_date_full": "2030-Dec-16 00:36",
            "epoch_date_close_approach": 1923611760000,
            "relative_velocity": {
                "kilometers_per_second": "10.5441217456",
                "kilometers_per_hour": "37958.8382842993",
                "miles_per_hour": "23586.1459328192"
            },
            "miss_distance": {
                "astronomical": "0.3094984272",
                "lunar": "120.3948881808",
                "kilometers": "46300305.477470064",
                "miles": "28769675.7561083232"
            },
            "orbiting_body": "Earth"
        }
    ],
    "orbital_data": {
        "orbit_id": "10",
        "orbit_determination_date": "2020-12-07 05:26:55",
        "first_observation_date": "2020-11-21",
        "last_observation_date": "2020-12-07",
        "data_arc_in_days": 16,
        "observations_used": 91,
        "orbit_uncertainty": "7",
        "minimum_orbit_intersection": ".147707",
        "jupiter_tisserand_invariant": "4.691",
        "epoch_osculation": "2459000.5",
        "eccentricity": ".1937775730230338",
        "semi_major_axis": "1.400055725948067",
        "inclination": "16.82890477208701",
        "ascending_node_longitude": "252.9755593536973",
        "orbital_period": "605.0850321464321",
        "perihelion_distance": "1.128756325276849",
        "perihelion_argument": "193.0619249916871",
        "aphelion_distance": "1.671355126619285",
        "perihelion_time": "2459207.968097174257",
        "mean_anomaly": "236.5652577493311",
        "mean_motion": ".5949577016026387",
        "equinox": "J2000",
        "orbit_class": {
            "orbit_class_type": "AMO",
            "orbit_class_description": "Near-Earth asteroid orbits similar to that of 1221 Amor",
            "orbit_class_range": "1.017 AU < q (perihelion) < 1.3 AU"
        }
    },
    "is_sentry_object": false
}